ORBCOMM FM33            
1 25983U 99065D   25103.08317176  .00002360  00000+0  78990-3 0  9996
2 25983  45.0283 308.4495 0008734  95.3740 264.8106 14.39817366326752
ORBCOMM FM36            
1 25984U 99065E   25103.51835902  .00002677  00000+0  92473-3 0  9990
2 25984  45.0399  37.3188 0004694 335.2302  24.8321 14.37921500325700
ORBCOMM FM35            
1 25985U 99065F   25102.89600908  .00002717  00000+0  95702-3 0  9990
2 25985  45.0396  44.7883 0003511  42.1467 317.9651 14.36914860325392
ORBCOMM FM34            
1 25986U 99065G   25103.21100919  .00002459  00000+0  86992-3 0  9999
2 25986  45.0393  43.7853 0004950   2.5049 357.5824 14.36955191325596
ORBCOMM FM38            
1 33060U 08031A   25103.51924398  .00004463  00000+0  59688-3 0  9991
2 33060  48.4390 263.3657 0004766 127.3200 232.8150 14.80992721905156
ORBCOMM FM41            
1 33061U 08031B   25102.85793729  .00004775  00000+0  64272-3 0  9991
2 33061  48.4426 274.0722 0003880 108.0468  42.6734 14.80589540904556
ORBCOMM FM29            
1 33062U 08031C   25103.50248541  .00004555  00000+0  61326-3 0  9995
2 33062  48.4378 278.8897 0005615 108.7548 301.8925 14.80674246904956
ORBCOMM FM39            
1 33063U 08031D   25102.98845197  .00003941  00000+0  55217-3 0  9997
2 33063  48.4396 304.9040 0006537  76.2521 283.9121 14.79265654904564
