<?xml version="1.0" encoding="UTF-8"?>
<ndm xmlns:xsi="http://www.w3.org/2001/XMLSchema-instance" xsi:noNamespaceSchemaLocation="https://sanaregistry.org/r/ndmxml_unqualified/ndmxml-2.0.0-master-2.0.xsd">
<omm id="CCSDS_OMM_VERS" version="2.0">
<header><CREATION_DATE/><ORIGINATOR/></header><body><segment><metadata><OBJECT_NAME>ORBCOMM FM33</OBJECT_NAME><OBJECT_ID>1999-065D</OBJECT_ID><CENTER_NAME>EARTH</CENTER_NAME><REF_FRAME>TEME</REF_FRAME><TIME_SYSTEM>UTC</TIME_SYSTEM><MEAN_ELEMENT_THEORY>SGP4</MEAN_ELEMENT_THEORY></metadata><data><meanElements><EPOCH>2025-04-13T01:59:46.040064</EPOCH><MEAN_MOTION>14.39817366</MEAN_MOTION><ECCENTRICITY>.0008734</ECCENTRICITY><INCLINATION>45.0283</INCLINATION><RA_OF_ASC_NODE>308.4495</RA_OF_ASC_NODE><ARG_OF_PERICENTER>95.3740</ARG_OF_PERICENTER><MEAN_ANOMALY>264.8106</MEAN_ANOMALY></meanElements><tleParameters><EPHEMERIS_TYPE>0</EPHEMERIS_TYPE><CLASSIFICATION_TYPE>U</CLASSIFICATION_TYPE><NORAD_CAT_ID>25983</NORAD_CAT_ID><ELEMENT_SET_NO>999</ELEMENT_SET_NO><REV_AT_EPOCH>32675</REV_AT_EPOCH><BSTAR>.7899E-3</BSTAR><MEAN_MOTION_DOT>.236E-4</MEAN_MOTION_DOT><MEAN_MOTION_DDOT>0</MEAN_MOTION_DDOT></tleParameters></data></segment></body></omm>
<omm id="CCSDS_OMM_VERS" version="2.0">
<header><CREATION_DATE/><ORIGINATOR/></header><body><segment><metadata><OBJECT_NAME>ORBCOMM FM36</OBJECT_NAME><OBJECT_ID>1999-065E</OBJECT_ID><CENTER_NAME>EARTH</CENTER_NAME><REF_FRAME>TEME</REF_FRAME><TIME_SYSTEM>UTC</TIME_SYSTEM><MEAN_ELEMENT_THEORY>SGP4</MEAN_ELEMENT_THEORY></metadata><data><meanElements><EPOCH>2025-04-13T12:26:26.219328</EPOCH><MEAN_MOTION>14.37921500</MEAN_MOTION><ECCENTRICITY>.0004694</ECCENTRICITY><INCLINATION>45.0399</INCLINATION><RA_OF_ASC_NODE>37.3188</RA_OF_ASC_NODE><ARG_OF_PERICENTER>335.2302</ARG_OF_PERICENTER><MEAN_ANOMALY>24.8321</MEAN_ANOMALY></meanElements><tleParameters><EPHEMERIS_TYPE>0</EPHEMERIS_TYPE><CLASSIFICATION_TYPE>U</CLASSIFICATION_TYPE><NORAD_CAT_ID>25984</NORAD_CAT_ID><ELEMENT_SET_NO>999</ELEMENT_SET_NO><REV_AT_EPOCH>32570</REV_AT_EPOCH><BSTAR>.92473E-3</BSTAR><MEAN_MOTION_DOT>.2677E-4</MEAN_MOTION_DOT><MEAN_MOTION_DDOT>0</MEAN_MOTION_DDOT></tleParameters></data></segment></body></omm>
<omm id="CCSDS_OMM_VERS" version="2.0">
<header><CREATION_DATE/><ORIGINATOR/></header><body><segment><metadata><OBJECT_NAME>ORBCOMM FM35</OBJECT_NAME><OBJECT_ID>1999-065F</OBJECT_ID><CENTER_NAME>EARTH</CENTER_NAME><REF_FRAME>TEME</REF_FRAME><TIME_SYSTEM>UTC</TIME_SYSTEM><MEAN_ELEMENT_THEORY>SGP4</MEAN_ELEMENT_THEORY></metadata><data><meanElements><EPOCH>2025-04-12T21:30:15.184512</EPOCH><MEAN_MOTION>14.36914860</MEAN_MOTION><ECCENTRICITY>.0003511</ECCENTRICITY><INCLINATION>45.0396</INCLINATION><RA_OF_ASC_NODE>44.7883</RA_OF_ASC_NODE><ARG_OF_PERICENTER>42.1467</ARG_OF_PERICENTER><MEAN_ANOMALY>317.9651</MEAN_ANOMALY></meanElements><tleParameters><EPHEMERIS_TYPE>0</EPHEMERIS_TYPE><CLASSIFICATION_TYPE>U</CLASSIFICATION_TYPE><NORAD_CAT_ID>25985</NORAD_CAT_ID><ELEMENT_SET_NO>999</ELEMENT_SET_NO><REV_AT_EPOCH>32539</REV_AT_EPOCH><BSTAR>.95702E-3</BSTAR><MEAN_MOTION_DOT>.2717E-4</MEAN_MOTION_DOT><MEAN_MOTION_DDOT>0</MEAN_MOTION_DDOT></tleParameters></data></segment></body></omm>
<omm id="CCSDS_OMM_VERS" version="2.0">
<header><CREATION_DATE/><ORIGINATOR/></header><body><segment><metadata><OBJECT_NAME>ORBCOMM FM34</OBJECT_NAME><OBJECT_ID>1999-065G</OBJECT_ID><CENTER_NAME>EARTH</CENTER_NAME><REF_FRAME>TEME</REF_FRAME><TIME_SYSTEM>UTC</TIME_SYSTEM><MEAN_ELEMENT_THEORY>SGP4</MEAN_ELEMENT_THEORY></metadata><data><meanElements><EPOCH>2025-04-13T05:03:51.194016</EPOCH><MEAN_MOTION>14.36955191</MEAN_MOTION><ECCENTRICITY>.000495</ECCENTRICITY><INCLINATION>45.0393</INCLINATION><RA_OF_ASC_NODE>43.7853</RA_OF_ASC_NODE><ARG_OF_PERICENTER>2.5049</ARG_OF_PERICENTER><MEAN_ANOMALY>357.5824</MEAN_ANOMALY></meanElements><tleParameters><EPHEMERIS_TYPE>0</EPHEMERIS_TYPE><CLASSIFICATION_TYPE>U</CLASSIFICATION_TYPE><NORAD_CAT_ID>25986</NORAD_CAT_ID><ELEMENT_SET_NO>999</ELEMENT_SET_NO><REV_AT_EPOCH>32559</REV_AT_EPOCH><BSTAR>.86992E-3</BSTAR><MEAN_MOTION_DOT>.2459E-4</MEAN_MOTION_DOT><MEAN_MOTION_DDOT>0</MEAN_MOTION_DDOT></tleParameters></data></segment></body></omm>
<omm id="CCSDS_OMM_VERS" version="2.0">
<header><CREATION_DATE/><ORIGINATOR/></header><body><segment><metadata><OBJECT_NAME>ORBCOMM FM38</OBJECT_NAME><OBJECT_ID>2008-031A</OBJECT_ID><CENTER_NAME>EARTH</CENTER_NAME><REF_FRAME>TEME</REF_FRAME><TIME_SYSTEM>UTC</TIME_SYSTEM><MEAN_ELEMENT_THEORY>SGP4</MEAN_ELEMENT_THEORY></metadata><data><meanElements><EPOCH>2025-04-13T12:27:42.679872</EPOCH><MEAN_MOTION>14.80992721</MEAN_MOTION><ECCENTRICITY>.0004766</ECCENTRICITY><INCLINATION>48.4390</INCLINATION><RA_OF_ASC_NODE>263.3657</RA_OF_ASC_NODE><ARG_OF_PERICENTER>127.3200</ARG_OF_PERICENTER><MEAN_ANOMALY>232.8150</MEAN_ANOMALY></meanElements><tleParameters><EPHEMERIS_TYPE>0</EPHEMERIS_TYPE><CLASSIFICATION_TYPE>U</CLASSIFICATION_TYPE><NORAD_CAT_ID>33060</NORAD_CAT_ID><ELEMENT_SET_NO>999</ELEMENT_SET_NO><REV_AT_EPOCH>90515</REV_AT_EPOCH><BSTAR>.59688E-3</BSTAR><MEAN_MOTION_DOT>.4463E-4</MEAN_MOTION_DOT><MEAN_MOTION_DDOT>0</MEAN_MOTION_DDOT></tleParameters></data></segment></body></omm>
<omm id="CCSDS_OMM_VERS" version="2.0">
<header><CREATION_DATE/><ORIGINATOR/></header><body><segment><metadata><OBJECT_NAME>ORBCOMM FM41</OBJECT_NAME><OBJECT_ID>2008-031B</OBJECT_ID><CENTER_NAME>EARTH</CENTER_NAME><REF_FRAME>TEME</REF_FRAME><TIME_SYSTEM>UTC</TIME_SYSTEM><MEAN_ELEMENT_THEORY>SGP4</MEAN_ELEMENT_THEORY></metadata><data><meanElements><EPOCH>2025-04-12T20:35:25.781856</EPOCH><MEAN_MOTION>14.80589540</MEAN_MOTION><ECCENTRICITY>.000388</ECCENTRICITY><INCLINATION>48.4426</INCLINATION><RA_OF_ASC_NODE>274.0722</RA_OF_ASC_NODE><ARG_OF_PERICENTER>108.0468</ARG_OF_PERICENTER><MEAN_ANOMALY>42.6734</MEAN_ANOMALY></meanElements><tleParameters><EPHEMERIS_TYPE>0</EPHEMERIS_TYPE><CLASSIFICATION_TYPE>U</CLASSIFICATION_TYPE><NORAD_CAT_ID>33061</NORAD_CAT_ID><ELEMENT_SET_NO>999</ELEMENT_SET_NO><REV_AT_EPOCH>90455</REV_AT_EPOCH><BSTAR>.64272E-3</BSTAR><MEAN_MOTION_DOT>.4775E-4</MEAN_MOTION_DOT><MEAN_MOTION_DDOT>0</MEAN_MOTION_DDOT></tleParameters></data></segment></body></omm>
<omm id="CCSDS_OMM_VERS" version="2.0">
<header><CREATION_DATE/><ORIGINATOR/></header><body><segment><metadata><OBJECT_NAME>ORBCOMM FM29</OBJECT_NAME><OBJECT_ID>2008-031C</OBJECT_ID><CENTER_NAME>EARTH</CENTER_NAME><REF_FRAME>TEME</REF_FRAME><TIME_SYSTEM>UTC</TIME_SYSTEM><MEAN_ELEMENT_THEORY>SGP4</MEAN_ELEMENT_THEORY></metadata><data><meanElements><EPOCH>2025-04-13T12:03:34.739424</EPOCH><MEAN_MOTION>14.80674246</MEAN_MOTION><ECCENTRICITY>.0005615</ECCENTRICITY><INCLINATION>48.4378</INCLINATION><RA_OF_ASC_NODE>278.8897</RA_OF_ASC_NODE><ARG_OF_PERICENTER>108.7548</ARG_OF_PERICENTER><MEAN_ANOMALY>301.8925</MEAN_ANOMALY></meanElements><tleParameters><EPHEMERIS_TYPE>0</EPHEMERIS_TYPE><CLASSIFICATION_TYPE>U</CLASSIFICATION_TYPE><NORAD_CAT_ID>33062</NORAD_CAT_ID><ELEMENT_SET_NO>999</ELEMENT_SET_NO><REV_AT_EPOCH>90495</REV_AT_EPOCH><BSTAR>.61326E-3</BSTAR><MEAN_MOTION_DOT>.4555E-4</MEAN_MOTION_DOT><MEAN_MOTION_DDOT>0</MEAN_MOTION_DDOT></tleParameters></data></segment></body></omm>
<omm id="CCSDS_OMM_VERS" version="2.0">
<header><CREATION_DATE/><ORIGINATOR/></header><body><segment><metadata><OBJECT_NAME>ORBCOMM FM39</OBJECT_NAME><OBJECT_ID>2008-031D</OBJECT_ID><CENTER_NAME>EARTH</CENTER_NAME><REF_FRAME>TEME</REF_FRAME><TIME_SYSTEM>UTC</TIME_SYSTEM><MEAN_ELEMENT_THEORY>SGP4</MEAN_ELEMENT_THEORY></metadata><data><meanElements><EPOCH>2025-04-12T23:43:22.250208</EPOCH><MEAN_MOTION>14.79265654</MEAN_MOTION><ECCENTRICITY>.0006537</ECCENTRICITY><INCLINATION>48.4396</INCLINATION><RA_OF_ASC_NODE>304.9040</RA_OF_ASC_NODE><ARG_OF_PERICENTER>76.2521</ARG_OF_PERICENTER><MEAN_ANOMALY>283.9121</MEAN_ANOMALY></meanElements><tleParameters><EPHEMERIS_TYPE>0</EPHEMERIS_TYPE><CLASSIFICATION_TYPE>U</CLASSIFICATION_TYPE><NORAD_CAT_ID>33063</NORAD_CAT_ID><ELEMENT_SET_NO>999</ELEMENT_SET_NO><REV_AT_EPOCH>90456</REV_AT_EPOCH><BSTAR>.55217E-3</BSTAR><MEAN_MOTION_DOT>.3941E-4</MEAN_MOTION_DOT><MEAN_MOTION_DDOT>0</MEAN_MOTION_DDOT></tleParameters></data></segment></body></omm>

</ndm>
